PROBA-1                 
1 26958U 01049B   22267.52538547  .00001758  00000+0  15195-3 0  9996
2 26958  97.8335 227.4444 0071881  15.0433 345.2903 14.96596198139226
BIRD 2                  
1 26959U 01049C   22267.25432091  .00015792  00000+0  31863-3 0  9997
2 26959  97.7632   5.8722 0006517  27.3610 332.7980 15.46603213468448
CUTE-1 (CO-55)          
1 27844U 03031E   22267.53519055  .00000235  00000+0  12499-3 0  9991
2 27844  98.6813 273.7361 0009980 168.6861 191.4543 14.22497787997950
CUBESAT XI-IV (CO-57)   
1 27848U 03031J   22266.96632617  .00000190  00000+0  10582-3 0  9992
2 27848  98.6856 273.6740 0009577 184.6576 175.4514 14.22048401997689
GENESIS 1               
1 29252U 06029A   22267.28364349  .00004033  00000+0  18146-3 0  9997
2 29252  64.5209 106.3839 0054891 247.1314 112.4010 15.21357119894002
FALCONSAT-3             
1 30776U 07006E   22266.57159434  .00060214  00000+0  69303-3 0  9998
2 30776  35.4305 334.2883 0001832 187.7130 172.3576 15.60848996864888
GENESIS 2               
1 31789U 07028A   22267.03342113  .00004022  00000+0  18658-3 0  9999
2 31789  64.4961 150.6367 0055903 299.7609  59.7960 15.20265780840882
APRIZESAT 4             
1 35684U 09041D   22267.50451598  .00000576  00000+0  82856-4 0  9996
2 35684  98.3101 284.5420 0047485  35.3833 325.0513 14.79738469709719
APRIZESAT 3             
1 35686U 09041F   22267.48528156  .00001011  00000+0  11162-3 0  9996
2 35686  98.1046 356.3562 0071091 221.9244 137.6516 14.88063899713332
PROBA-2                 
1 36037U 09059B   22267.50573544  .00000163  00000+0  49843-4 0  9995
2 36037  98.2249  92.2468 0013767 158.7444 201.4327 14.53294348683642
APRIZESAT 5             
1 37792U 11044E   22267.55978770  .00000572  00000+0  89292-4 0  9992
2 37792  98.3087 145.8325 0058731  49.2186 311.4097 14.75847883597615
APRIZESAT 6             
1 37793U 11044F   22267.56695414  .00000456  00000+0  78542-4 0  9992
2 37793  98.3892 122.9530 0047796 101.0410 312.8257 14.72860921596459
TET-1                   
1 38710U 12039D   22267.20753997  .00114334  00000+0  52856-3 0  9999
2 38710  97.5022 355.9973 0000589 176.2284 183.8989 15.83192145572963
PROBA-V                 
1 39159U 13021A   22267.08385723  .00000037  00000+0  34750-4 0  9991
2 39159  98.3503 297.9743 0004714 149.1828 210.9629 14.23048928487354
STPSAT-3                
1 39380U 13064A   22266.88855172  .00042685  00000+0  76003-3 0  9992
2 39380  40.4976 163.5908 0009582 293.1909  66.7900 15.49268224494541
APRIZESAT 7             
1 39416U 13066A   22267.50202481  .00000993  00000+0  12198-3 0  9994
2 39416  97.5830 242.7340 0041589  33.6321 326.7521 14.84586366478730
APRIZESAT 8             
1 39425U 13066K   22267.45466972  .00000789  00000+0  10420-3 0  9994
2 39425  97.6383 234.2691 0052946  76.7294 283.9817 14.81721656477624
BUGSAT-1 (TITA)         
1 40014U 14033E   22267.53686741  .00001572  00000+0  14075-3 0  9993
2 40014  98.1470 270.0244 0031852  70.2374 290.2277 14.97031119450960
SAUDISAT 4              
1 40016U 14033G   22267.50677551  .00000474  00000+0  75335-4 0  9998
2 40016  97.6397  96.9078 0048013 178.3445 181.7933 14.75629922445003
APRIZESAT 9             
1 40018U 14033J   22267.42272341  .00000436  00000+0  77505-4 0  9998
2 40018  97.7252  72.7506 0069627 255.5165 103.8310 14.70333934443197
APRIZESAT 10            
1 40019U 14033K   22267.44004192  .00000317  00000+0  61929-4 0  9999
2 40019  97.7813  62.6298 0082637 300.9965  58.3142 14.67370211442311
TDS 1                   
1 40076U 14037H   22267.57370346  .00002043  00000+0  24081-3 0  9992
2 40076  98.3752 145.7391 0008007 106.2724 253.9371 14.85966251444425
TIANTUO 2               
1 40144U 14053B   22267.37281154  .00005404  00000+0  14256-3 0  9999
2 40144  97.1880 345.3761 0010060 194.2080 230.1592 15.38849284450304
TECHNOSAT               
1 42829U 17042E   22267.54485535  .00001301  00000+0  13297-3 0  9996
2 42829  97.4101 115.8623 0014999  40.7297 319.5042 14.92066427282867
FLYING LAPTOP           
1 42831U 17042G   22267.32688776  .00000767  00000+0  80760-4 0  9992
2 42831  97.4126 115.9940 0014768  42.2115 318.0233 14.91938727282833
HAWK-A                  
1 43765U 18099H   22267.52195130  .00001838  00000+0  16307-3 0  9996
2 43765  97.6098 332.9951 0013217 300.8324  59.1597 14.97340636207965
HAWK-B                  
1 43794U 18099AN  22267.18820141  .00001807  00000+0  16040-3 0  9997
2 43794  97.6098 332.6700 0013325 302.2559  57.7372 14.97339609207909
HAWK-C                  
1 43799U 18099AT  22267.52214545  .00001884  00000+0  16700-3 0  9993
2 43799  97.6096 332.9024 0013164 300.8190  59.1737 14.97342005208704
SALSAT                  
1 46495U 20068K   22267.44866673  .00003176  00000+0  22843-3 0  9995
2 46495  97.7358 208.8292 0015040 305.7872  54.1955 15.04891286109072
